NORAD_CAT_ID,OBJECT_NAME,OBJECT_TYPE,EPOCH,MEAN_MOTION,ECCENTRICITY,INCLINATION,RA_OF_ASC_NODE,ARG_OF_PERICENTER,MEAN_ANOMALY,BSTAR,MEAN_MOTION_DOT,MEAN_MOTION_DDOT,TLE_LINE0,TLE_LINE1,TLE_LINE2,SEMIMAJOR_AXIS,PERIOD,APOGEE,PERIGEE,DECAYED
49422.0,STARLINK-3161,PAYLOAD,2024-03-30 11:48:47,15.07170768,0.0001546,53.2152,173.1215,83.9491,276.1676,0.0016875,0.00025473,0.0,0 STARLINK-3161,1 49422U 21104Q   24090.49221628  .00025473  00000-0  16875-2 0  9998,2 49422  53.2152 173.1215 0001546  83.9491 276.1676 15.07170768131553,6922.987,95.543,545.923,543.782,0.0
49422.0,STARLINK-3161,PAYLOAD,2024-03-30 14:59:46,15.07177753,0.0001554,53.2152,172.5283,81.5859,278.5308,0.0017248,0.00026049,0.0,0 STARLINK-3161,1 49422U 21104Q   24090.62484283  .00026049  00000-0  17248-2 0  9996,2 49422  53.2152 172.5283 0001554  81.5859 278.5308 15.07177753132686,6922.966,95.543,545.907,543.755,0.0
49422.0,STARLINK-3161,PAYLOAD,2024-03-31 05:19:11,15.07193888,0.000167,53.2155,169.8562,83.0654,277.0527,0.0017694,0.00026744,0.0,0 STARLINK-3161,1 49422U 21104Q   24091.22166110  .00026744  00000-0  17694-2 0  9996,2 49422  53.2155 169.8562 0001670  83.0654 277.0527 15.07193888132771,6922.916,95.542,545.938,543.625,0.0
49422.0,STARLINK-3161,PAYLOAD,2024-03-31 13:16:38,15.07197285,0.0001611,53.2153,168.3703,85.1616,274.9559,0.0010071,0.00015076,0.0,0 STARLINK-3161,1 49422U 21104Q   24091.55322216  .00015076  00000-0  10071-2 0  9991,2 49422  53.2153 168.3703 0001611  85.1616 274.9559 15.07197285131715,6922.906,95.542,545.886,543.656,0.0
49422.0,STARLINK-3161,PAYLOAD,2024-04-01 11:33:28,15.07248894,0.0001623,53.2153,164.2133,79.7591,280.3583,0.0017041,0.00025782,0.0,0 STARLINK-3161,1 49422U 21104Q   24092.48157622  .00025782  00000-0  17041-2 0  9990,2 49422  53.2153 164.2133 0001623  79.7591 280.3583 15.07248894132960,6922.748,95.538,545.737,543.489,0.0
49422.0,STARLINK-3161,PAYLOAD,2024-04-01 14:44:24,15.0733742,0.000139,53.2162,163.6193,78.6384,281.4763,0.0040961,0.00062849,0.0,0 STARLINK-3161,1 49422U 21104Q   24092.61417516  .00062849  00000-0  40961-2 0  9998,2 49422  53.2162 163.6193 0001390  78.6384 281.4763 15.07337420131873,6922.477,95.533,545.304,543.38,0.0
49422.0,STARLINK-3161,PAYLOAD,2024-04-01 21:06:17,15.07451115,0.0001143,53.2157,162.4312,100.7903,259.3217,0.0063232,0.00097963,0.0,0 STARLINK-3161,1 49422U 21104Q   24092.87936495  .00097963  00000-0  63232-2 0  9999,2 49422  53.2157 162.4312 0001143 100.7903 259.3217 15.07451115133022,6922.129,95.525,544.785,543.203,0.0
49422.0,STARLINK-3161,PAYLOAD,2024-04-02 05:03:31,15.07710985,0.0002894,53.2155,160.9455,97.2695,262.8626,0.010513,0.0016581,0.0,0 STARLINK-3161,1 49422U 21104Q   24093.21078027  .00165810  00000-0  10513-1 0  9996,2 49422  53.2155 160.9455 0002894  97.2695 262.8626 15.07710985133074,6921.333,95.509,545.202,541.195,0.0
49422.0,STARLINK-3161,PAYLOAD,2024-04-02 11:25:15,15.08038335,0.0001694,53.2154,159.7581,78.5997,281.5185,0.010622,0.00169107,0.0,0 STARLINK-3161,1 49422U 21104Q   24093.47587100  .00169107  00000-0  10622-1 0  9995,2 49422  53.2154 159.7581 0001694  78.5997 281.5185 15.08038335133119,6920.332,95.488,543.369,541.025,0.0
49422.0,STARLINK-3161,PAYLOAD,2024-04-02 22:00:01,15.08776358,0.0001364,53.2156,157.7787,81.7033,153.511,0.0060209,0.00096683,0.0,0 STARLINK-3161,1 49422U 21104Q   24093.91668981  .00096683  00000-0  60209-2 0  9996,2 49422  53.2156 157.7787 0001364  81.7033 153.5110 15.08776358133174,6918.075,95.442,540.884,538.996,0.0
49422.0,STARLINK-3161,PAYLOAD,2024-04-03 14:00:01,15.08814161,0.0001498,53.2156,154.7879,80.5541,177.763,0.0013076,0.00020569,0.0,0 STARLINK-3161,1 49422U 21104Q   24094.58334491  .00020569  00000-0  13076-2 0  9996,2 49422  53.2156 154.7879 0001498  80.5541 177.7630 15.08814161133273,6917.959,95.439,540.861,538.788,0.0
49422.0,STARLINK-3161,PAYLOAD,2024-04-03 22:00:00,15.08820458,0.0001421,53.2156,153.2898,89.1225,180.7673,0.00046626,7.136e-05,0.0,0 STARLINK-3161,1 49422U 21104Q   24094.91667824  .00007136  00000-0  46626-3 0  9995,2 49422  53.2156 153.2898 0001421  89.1225 180.7673 15.08820458  5419,6917.94,95.439,540.788,538.822,0.0
49422.0,STARLINK-3161,PAYLOAD,2024-04-04 14:00:01,15.08815931,0.0001483,53.2154,150.2989,82.2834,210.8343,0.0024403,0.00038738,0.0,0 STARLINK-3161,1 49422U 21104Q   24095.58335648  .00038738  00000-0  24403-2 0  9995,2 49422  53.2154 150.2989 0001483  82.2834 210.8343 15.08815931133425,6917.954,95.439,540.845,538.793,0.0
49422.0,STARLINK-3161,PAYLOAD,2024-04-04 22:00:00,15.08828449,0.0001432,53.2153,148.8009,90.8314,213.8154,0.00099543,0.00015585,0.0,0 STARLINK-3161,1 49422U 21104Q   24095.91667824  .00015585  00000-0  99543-3 0  9999,2 49422  53.2153 148.8009 0001432  90.8314 213.8154 15.08828449  5566,6917.916,95.438,540.771,538.79,0.0
49422.0,STARLINK-3161,PAYLOAD,2024-04-05 06:00:00,15.08859966,0.0001489,53.2152,147.3049,91.1499,225.0763,-0.0010936,-0.0001766,0.0,0 STARLINK-3161,1 49422U 21104Q   24096.25001157 -.00017660  00000-0 -10936-2 0  9994,2 49422  53.2152 147.3049 0001489  91.1499 225.0763 15.08859966133520,6917.819,95.436,540.714,538.654,0.0
49422.0,STARLINK-3161,PAYLOAD,2024-04-05 14:00:01,15.08847882,0.0001395,53.215,145.8098,81.6918,246.1609,-0.00092299,-0.0001495,0.0,0 STARLINK-3161,1 49422U 21104Q   24096.58334491 -.00014950  00000-0 -92299-3 0  9992,2 49422  53.2150 145.8098 0001395  81.6918 246.1609 15.08847882  5661,6917.856,95.437,540.686,538.756,0.0
49422.0,STARLINK-3161,PAYLOAD,2024-04-05 22:00:00,15.08808134,0.0001274,53.215,144.3116,92.0111,247.4529,0.0018784,0.00029707,0.0,0 STARLINK-3161,1 49422U 21104Q   24096.91667824  .00029707  00000-0  18784-2 0  9998,2 49422  53.2150 144.3116 0001274  92.0111 247.4529 15.08808134  5711,6917.978,95.44,540.724,538.961,0.0
49422.0,STARLINK-3161,PAYLOAD,2024-04-06 02:51:39,15.08848143,0.0002475,53.2156,143.4033,83.0425,277.0848,0.00031781,4.774e-05,0.0,0 STARLINK-3161,1 49422U 21104Q   24097.11920433  .00004774  00000-0  31781-3 0  9999,2 49422  53.2156 143.4033 0002475  83.0425 277.0848 15.08848143133660,6917.855,95.437,541.433,538.008,0.0
49422.0,STARLINK-3161,PAYLOAD,2024-04-06 12:23:58,15.08837294,0.0001374,53.2152,141.6179,89.2848,270.8301,8.1502e-05,1.009e-05,0.0,0 STARLINK-3161,1 49422U 21104Q   24097.51664512  .00001009  00000-0  81502-4 0  9991,2 49422  53.2152 141.6179 0001374  89.2848 270.8301 15.08837294133728,6917.889,95.438,540.704,538.803,0.0
49422.0,STARLINK-3161,PAYLOAD,2024-04-06 20:20:53,15.0884118,0.0001345,53.2153,140.1312,89.2359,270.8787,0.00030684,4.599e-05,0.0,0 STARLINK-3161,1 49422U 21104Q   24097.84784571  .00004599  00000-0  30684-3 0  9996,2 49422  53.2153 140.1312 0001345  89.2359 270.8787 15.08841180132666,6917.877,95.437,540.672,538.811,0.0
49422.0,STARLINK-3161,PAYLOAD,2024-04-07 09:03:58,15.08843136,0.0001388,53.2152,137.7517,92.2141,267.901,0.00016169,2.287e-05,0.0,0 STARLINK-3161,1 49422U 21104Q   24098.37776595  .00002287  00000-0  16169-3 0  9996,2 49422  53.2152 137.7517 0001388  92.2141 267.9010 15.08843136132742,6917.871,95.437,540.696,538.776,0.0
49422.0,STARLINK-3161,PAYLOAD,2024-04-08 02:33:13,15.08840303,0.0001339,53.2152,134.4803,92.5587,267.5559,0.00027486,4.089e-05,0.0,0 STARLINK-3161,1 49422U 21104Q   24099.10640791  .00004089  00000-0  27486-3 0  9992,2 49422  53.2152 134.4803 0001339  92.5587 267.5559 15.08840303133969,6917.879,95.438,540.671,538.818,0.0
49422.0,STARLINK-3161,PAYLOAD,2024-04-08 08:54:46,15.08840373,0.000135,53.2154,133.2907,92.2496,267.865,0.00016968,2.414e-05,0.0,0 STARLINK-3161,1 49422U 21104Q   24099.37136839  .00002414  00000-0  16968-3 0  9997,2 49422  53.2154 133.2907 0001350  92.2496 267.8650 15.08840373132895,6917.879,95.438,540.678,538.81,0.0
49422.0,STARLINK-3161,PAYLOAD,2024-04-09 08:45:32,15.08848347,0.0001328,53.2153,128.8305,90.6508,269.4636,0.00017666,2.525e-05,0.0,0 STARLINK-3161,1 49422U 21104Q   24100.36496280  .00002525  00000-0  17666-3 0  9997,2 49422  53.2153 128.8305 0001328  90.6508 269.4636 15.08848347134159,6917.855,95.437,540.639,538.801,0.0
49422.0,STARLINK-3161,PAYLOAD,2024-04-09 18:17:51,15.08855341,0.0001325,53.2152,127.0459,90.1679,269.9465,0.00023504,3.456e-05,0.0,0 STARLINK-3161,1 49422U 21104Q   24100.76239688  .00003456  00000-0  23504-3 0  9990,2 49422  53.2152 127.0459 0001325  90.1679 269.9465 15.08855341133101,6917.833,95.437,540.615,538.782,0.0
49422.0,STARLINK-3161,PAYLOAD,2024-04-10 05:25:33,15.08839691,0.0001935,53.217,124.9677,120.4167,239.7017,7.938e-05,9.75e-06,0.0,0 STARLINK-3161,1 49422U 21104Q   24101.22608398  .00000975  00000-0  79380-4 0  9997,2 49422  53.2170 124.9677 0001935 120.4167 239.7017 15.08839691134283,6917.881,95.438,541.085,538.408,0.0
49422.0,STARLINK-3161,PAYLOAD,2024-04-10 08:36:20,15.0883761,0.0001395,53.2156,124.3715,101.0329,259.082,3.7915e-05,3.16e-06,0.0,0 STARLINK-3161,1 49422U 21104Q   24101.35856554  .00000316  00000-0  37915-4 0  9997,2 49422  53.2156 124.3715 0001395 101.0329 259.0820 15.08837610133194,6917.888,95.438,540.718,538.788,0.0
49422.0,STARLINK-3161,PAYLOAD,2024-04-10 18:08:38,15.08841069,0.000147,53.2164,122.588,101.7921,258.3236,4.2084e-05,3.82e-06,0.0,0 STARLINK-3161,1 49422U 21104Q   24101.75600385  .00000382  00000-0  42084-4 0  9996,2 49422  53.2164 122.5880 0001470 101.7921 258.3236 15.08841069133258,6917.877,95.437,540.759,538.725,0.0
49422.0,STARLINK-3161,PAYLOAD,2024-04-11 05:16:21,15.0883387,0.0001568,53.217,120.507,104.1297,255.9869,-6.8496e-05,-1.378e-05,0.0,0 STARLINK-3161,1 49422U 21104Q   24102.21968864 -.00001378  00000-0 -68496-4 0  9990,2 49422  53.2170 120.5070 0001568 104.1297 255.9869 15.08833870134432,6917.899,95.438,540.849,538.679,0.0
49422.0,STARLINK-3161,PAYLOAD,2024-04-11 08:27:07,15.08831845,0.0001556,53.2167,119.9119,104.3125,255.804,-9.2097e-05,-1.753e-05,0.0,0 STARLINK-3161,1 49422U 21104Q   24102.35216994 -.00001753  00000-0 -92097-4 0  9996,2 49422  53.2167 119.9119 0001556 104.3125 255.8040 15.08831845133342,6917.905,95.438,540.847,538.694,0.0
